{
  "type": "FeatureCollection",
  "features": [
    {
      "type": "Feature",
      "properties": {
        "norad_id": 66546,
        "name": "SHIJIAN-30B",
        "group": "last-30-days",
        "lat": -28.509975275949863,
        "lon": -62.395925803737754,
        "alt_km": 517.9146809942258,
        "timestamp": "2025-12-14T20:40:30.514855+00:00",
        "meta_object_name": "SHIJIAN-30B",
        "meta_object_id": "2025-266B",
        "meta_epoch": "2025-12-14T16:05:29.027904",
        "meta_mean_motion": 15.15472464,
        "meta_eccentricity": 0.0010621,
        "meta_inclination": 51.7965,
        "meta_ra_of_asc_node": 323.8266,
        "meta_arg_of_pericenter": 6.7549,
        "meta_mean_anomaly": 353.3568,
        "meta_ephemeris_type": 0,
        "meta_classification_type": "U",
        "meta_norad_cat_id": 66546,
        "meta_element_set_no": 999,
        "meta_rev_at_epoch": 387,
        "meta_bstar": 0.00063956,
        "meta_mean_motion_dot": 0.0001198,
        "meta_mean_motion_ddot": 0,
        "tle_line1": "1 66546U 25266B   25348.67047486  .00011980  00000+0  63956-3 0  9992",
        "tle_line2": "2 66546  51.7965 323.8266 0010621   6.7549 353.3568 15.15472464  3873"
      },
      "geometry": {
        "type": "Point",
        "coordinates": [
          -62.395925803737754,
          -28.509975275949863
        ]
      }
    },
    {
      "type": "Feature",
      "properties": {
        "norad_id": 66547,
        "name": "SHIJIAN-30C",
        "group": "last-30-days",
        "lat": -30.34803082781391,
        "lon": -64.51859054287931,
        "alt_km": 517.244492861264,
        "timestamp": "2025-12-14T20:40:30.514865+00:00",
        "meta_object_name": "SHIJIAN-30C",
        "meta_object_id": "2025-266C",
        "meta_epoch": "2025-12-14T16:06:09.601344",
        "meta_mean_motion": 15.15421542,
        "meta_eccentricity": 0.0011477,
        "meta_inclination": 51.7975,
        "meta_ra_of_asc_node": 323.8314,
        "meta_arg_of_pericenter": 358.4064,
        "meta_mean_anomaly": 1.6873,
        "meta_ephemeris_type": 0,
        "meta_classification_type": "U",
        "meta_norad_cat_id": 66547,
        "meta_element_set_no": 999,
        "meta_rev_at_epoch": 387,
        "meta_bstar": 0.000569,
        "meta_mean_motion_dot": 0.00010608,
        "meta_mean_motion_ddot": 0,
        "tle_line1": "1 66547U 25266C   25348.67094446  .00010608  00000+0  56900-3 0  9998",
        "tle_line2": "2 66547  51.7975 323.8314 0011477 358.4064   1.6873 15.15421542  3871"
      },
      "geometry": {
        "type": "Point",
        "coordinates": [
          -64.51859054287931,
          -30.34803082781391
        ]
      }
    },
    {
      "type": "Feature",
      "properties": {
        "norad_id": 66548,
        "name": "CZ-2C R/B",
        "group": "last-30-days",
        "lat": -28.37922690172082,
        "lon": 166.10277091806537,
        "alt_km": 432.46781711595304,
        "timestamp": "2025-12-14T20:40:30.514878+00:00",
        "meta_object_name": "CZ-2C R/B",
        "meta_object_id": "2025-266D",
        "meta_epoch": "2025-12-14T07:11:38.707584",
        "meta_mean_motion": 15.30220458,
        "meta_eccentricity": 0.00838324,
        "meta_inclination": 52.0542,
        "meta_ra_of_asc_node": 323.8478,
        "meta_arg_of_pericenter": 178.4128,
        "meta_mean_anomaly": 181.714,
        "meta_ephemeris_type": 0,
        "meta_classification_type": "U",
        "meta_norad_cat_id": 66548,
        "meta_element_set_no": 999,
        "meta_rev_at_epoch": 385,
        "meta_bstar": 0.00037091465,
        "meta_mean_motion_dot": 0.00011867,
        "meta_mean_motion_ddot": 0,
        "tle_line1": "1 66548U 25266D   25348.29975356  .00011867  00000+0  37091-3 0  9993",
        "tle_line2": "2 66548  52.0542 323.8478 0083832 178.4128 181.7140 15.30220458  3857"
      },
      "geometry": {
        "type": "Point",
        "coordinates": [
          166.10277091806537,
          -28.37922690172082
        ]
      }
    },
    {
      "type": "Feature",
      "properties": {
        "norad_id": 66549,
        "name": "SHIJIAN-28",
        "group": "last-30-days",
        "lat": -4.149551704041635,
        "lon": 150.6431965894809,
        "alt_km": 35787.48486701381,
        "timestamp": "2025-12-14T20:40:30.514891+00:00",
        "meta_object_name": "SHIJIAN-28",
        "meta_object_id": "2025-277A",
        "meta_epoch": "2025-12-14T18:08:00.743424",
        "meta_mean_motion": 1.00271477,
        "meta_eccentricity": 8.86e-05,
        "meta_inclination": 5.0134,
        "meta_ra_of_asc_node": 274.9249,
        "meta_arg_of_pericenter": 134.0426,
        "meta_mean_anomaly": 63.5612,
        "meta_ephemeris_type": 0,
        "meta_classification_type": "U",
        "meta_norad_cat_id": 66549,
        "meta_element_set_no": 999,
        "meta_rev_at_epoch": 30,
        "meta_bstar": 0,
        "meta_mean_motion_dot": -3.38e-06,
        "meta_mean_motion_ddot": 0,
        "tle_line1": "1 66549U 25277A   25348.75556416 -.00000338  00000+0  00000+0 0  9997",
        "tle_line2": "2 66549   5.0134 274.9249 0000886 134.0426  63.5612  1.00271477   309"
      },
      "geometry": {
        "type": "Point",
        "coordinates": [
          150.6431965894809,
          -4.149551704041635
        ]
      }
    },
    {
      "type": "Feature",
      "properties": {
        "norad_id": 66550,
        "name": "CZ-7A R/B",
        "group": "last-30-days",
        "lat": 2.4398628777155835,
        "lon": -81.6412946356524,
        "alt_km": 29944.323366717592,
        "timestamp": "2025-12-14T20:40:30.514903+00:00",
        "meta_object_name": "CZ-7A R/B",
        "meta_object_id": "2025-277B",
        "meta_epoch": "2025-12-12T23:59:46.063680",
        "meta_mean_motion": 2.69999213,
        "meta_eccentricity": 0.70164962,
        "meta_inclination": 14.3833,
        "meta_ra_of_asc_node": 269.7494,
        "meta_arg_of_pericenter": 189.2871,
        "meta_mean_anomaly": 143.2042,
        "meta_ephemeris_type": 0,
        "meta_classification_type": "U",
        "meta_norad_cat_id": 66550,
        "meta_element_set_no": 999,
        "meta_rev_at_epoch": 35,
        "meta_bstar": 0.0022608485,
        "meta_mean_motion_dot": 0.01807848,
        "meta_mean_motion_ddot": -2.55676e-07,
        "tle_line1": "1 66550U 25277B   25346.99983870  .01807848 -25568-6  22608-2 0  9997",
        "tle_line2": "2 66550  14.3833 269.7494 7016496 189.2871 143.2042  2.69999213   350"
      },
      "geometry": {
        "type": "Point",
        "coordinates": [
          -81.6412946356524,
          2.4398628777155835
        ]
      }
    },
    {
      "type": "Feature",
      "properties": {
        "norad_id": 66551,
        "name": "USA 568",
        "group": "last-30-days",
        "lat": 29.43891371246897,
        "lon": -157.70032034284836,
        "alt_km": 9.41314060777222,
        "timestamp": "2025-12-14T20:40:30.514914+00:00",
        "meta_object_name": "USA 568",
        "meta_object_id": "2024-134K",
        "meta_epoch": "2025-12-02T16:00:03.000096",
        "meta_mean_motion": 15.87051116,
        "meta_eccentricity": 7.17e-05,
        "meta_inclination": 53.1571,
        "meta_ra_of_asc_node": 236.7807,
        "meta_arg_of_pericenter": 110.7411,
        "meta_mean_anomaly": 313.9012,
        "meta_ephemeris_type": 0,
        "meta_classification_type": "U",
        "meta_norad_cat_id": 66551,
        "meta_element_set_no": 999,
        "meta_rev_at_epoch": 262,
        "meta_bstar": -0.0074303,
        "meta_mean_motion_dot": -0.01709685,
        "meta_mean_motion_ddot": 0,
        "tle_line1": "1 66551U 24134K   25336.66670139 -.01709685  00000+0 -74303-2 0  9990",
        "tle_line2": "2 66551  53.1571 236.7807 0000717 110.7411 313.9012 15.87051116  2624"
      },
      "geometry": {
        "type": "Point",
        "coordinates": [
          -157.70032034284836,
          29.43891371246897
        ]
      }
    },
    {
      "type": "Feature",
      "properties": {
        "norad_id": 66554,
        "name": "GLOBAL-33",
        "group": "last-30-days",
        "lat": -39.90163011342627,
        "lon": -67.02052017797328,
        "alt_km": 477.30855586241887,
        "timestamp": "2025-12-14T20:40:30.514925+00:00",
        "meta_object_name": "GLOBAL-33",
        "meta_object_id": "2025-267A",
        "meta_epoch": "2025-12-14T05:29:19.257504",
        "meta_mean_motion": 15.31602676,
        "meta_eccentricity": 0.00047698,
        "meta_inclination": 42.0183,
        "meta_ra_of_asc_node": 48.3968,
        "meta_arg_of_pericenter": 75.153,
        "meta_mean_anomaly": 284.9835,
        "meta_ephemeris_type": 0,
        "meta_classification_type": "U",
        "meta_norad_cat_id": 66554,
        "meta_element_set_no": 999,
        "meta_rev_at_epoch": 363,
        "meta_bstar": 0.00088997621,
        "meta_mean_motion_dot": 0.00027606,
        "meta_mean_motion_ddot": 0,
        "tle_line1": "1 66554U 25267A   25348.22869511  .00027606  00000+0  88998-3 0  9999",
        "tle_line2": "2 66554  42.0183  48.3968 0004769  75.1530 284.9835 15.31602676  3639"
      },
      "geometry": {
        "type": "Point",
        "coordinates": [
          -67.02052017797328,
          -39.90163011342627
        ]
      }
    }
  ]
}